{
  "type": "FeatureCollection",
  "features": [
    {
      "type": "Feature",
      "properties": {
        "norad_id": 30059,
        "name": "FENGYUN 1C DEB",
        "group": "fengyun-1c-debris",
        "lat": 62.33887308974515,
        "lon": -43.607285484224356,
        "alt_km": 1103.826873416233,
        "timestamp": "2025-12-03T04:52:29.910558+00:00",
        "meta_object_name": "FENGYUN 1C DEB",
        "meta_object_id": "1999-025PL",
        "meta_epoch": "2025-12-02T18:44:43.679040",
        "meta_mean_motion": 13.45484038,
        "meta_eccentricity": 0.0326962,
        "meta_inclination": 98.822,
        "meta_ra_of_asc_node": 333.2552,
        "meta_arg_of_pericenter": 327.9894,
        "meta_mean_anomaly": 208.7121,
        "meta_ephemeris_type": 0,
        "meta_classification_type": "U",
        "meta_norad_cat_id": 30059,
        "meta_element_set_no": 999,
        "meta_rev_at_epoch": 92663,
        "meta_bstar": 0.00051964,
        "meta_mean_motion_dot": 3.87e-06,
        "meta_mean_motion_ddot": 0,
        "tle_line1": "1 30059U 99025PL  25336.78106110  .00000387  00000+0  51964-3 0  9990",
        "tle_line2": "2 30059  98.8220 333.2552 0326962 327.9894 208.7121 13.45484038926638"
      },
      "geometry": {
        "type": "Point",
        "coordinates": [
          -43.607285484224356,
          62.33887308974515
        ]
      }
    },
    {
      "type": "Feature",
      "properties": {
        "norad_id": 30060,
        "name": "FENGYUN 1C DEB",
        "group": "fengyun-1c-debris",
        "lat": -3.080870199162034,
        "lon": -154.90234113372318,
        "alt_km": 1127.7029911174113,
        "timestamp": "2025-12-03T04:52:29.910580+00:00",
        "meta_object_name": "FENGYUN 1C DEB",
        "meta_object_id": "1999-025PM",
        "meta_epoch": "2025-12-02T14:51:59.494176",
        "meta_mean_motion": 13.43707068,
        "meta_eccentricity": 0.03437513,
        "meta_inclination": 99.3147,
        "meta_ra_of_asc_node": 204.0505,
        "meta_arg_of_pericenter": 96.8834,
        "meta_mean_anomaly": 321.9826,
        "meta_ephemeris_type": 0,
        "meta_classification_type": "U",
        "meta_norad_cat_id": 30060,
        "meta_element_set_no": 999,
        "meta_rev_at_epoch": 92107,
        "meta_bstar": 0.0023444412,
        "meta_mean_motion_dot": 1.887e-05,
        "meta_mean_motion_ddot": 0,
        "tle_line1": "1 30060U 99025PM  25336.61943859  .00001887  00000+0  23444-2 0  9990",
        "tle_line2": "2 30060  99.3147 204.0505 0343751  96.8834 321.9826 13.43707068921070"
      },
      "geometry": {
        "type": "Point",
        "coordinates": [
          -154.90234113372318,
          -3.080870199162034
        ]
      }
    },
    {
      "type": "Feature",
      "properties": {
        "norad_id": 30061,
        "name": "FENGYUN 1C DEB",
        "group": "fengyun-1c-debris",
        "lat": -61.03768254535339,
        "lon": 107.46066169166576,
        "alt_km": 838.0977316913686,
        "timestamp": "2025-12-03T04:52:29.910592+00:00",
        "meta_object_name": "FENGYUN 1C DEB",
        "meta_object_id": "1999-025PN",
        "meta_epoch": "2025-12-02T20:52:55.329312",
        "meta_mean_motion": 13.4636748,
        "meta_eccentricity": 0.0372284,
        "meta_inclination": 101.8756,
        "meta_ra_of_asc_node": 84.721,
        "meta_arg_of_pericenter": 272.8886,
        "meta_mean_anomaly": 208.5878,
        "meta_ephemeris_type": 0,
        "meta_classification_type": "U",
        "meta_norad_cat_id": 30061,
        "meta_element_set_no": 999,
        "meta_rev_at_epoch": 91966,
        "meta_bstar": 0.0033733,
        "meta_mean_motion_dot": 3.028e-05,
        "meta_mean_motion_ddot": 0,
        "tle_line1": "1 30061U 99025PN  25336.87008483  .00003028  00000+0  33733-2 0  9995",
        "tle_line2": "2 30061 101.8756  84.7210 0372284 272.8886 208.5878 13.46367480919660"
      },
      "geometry": {
        "type": "Point",
        "coordinates": [
          107.46066169166576,
          -61.03768254535339
        ]
      }
    },
    {
      "type": "Feature",
      "properties": {
        "norad_id": 30062,
        "name": "FENGYUN 1C DEB",
        "group": "fengyun-1c-debris",
        "lat": -38.14158934910272,
        "lon": -6.363524296188359,
        "alt_km": 889.8018138055277,
        "timestamp": "2025-12-03T04:52:29.910603+00:00",
        "meta_object_name": "FENGYUN 1C DEB",
        "meta_object_id": "1999-025PP",
        "meta_epoch": "2025-12-02T21:05:13.079904",
        "meta_mean_motion": 14.0709073,
        "meta_eccentricity": 0.0049754,
        "meta_inclination": 98.7811,
        "meta_ra_of_asc_node": 346.3497,
        "meta_arg_of_pericenter": 75.6065,
        "meta_mean_anomaly": 43.4848,
        "meta_ephemeris_type": 0,
        "meta_classification_type": "U",
        "meta_norad_cat_id": 30062,
        "meta_element_set_no": 999,
        "meta_rev_at_epoch": 96769,
        "meta_bstar": 0.00038908,
        "meta_mean_motion_dot": 6.16e-06,
        "meta_mean_motion_ddot": 0,
        "tle_line1": "1 30062U 99025PP  25336.87862361  .00000616  00000+0  38908-3 0  9999",
        "tle_line2": "2 30062  98.7811 346.3497 0049754  75.6065  43.4848 14.07090730967690"
      },
      "geometry": {
        "type": "Point",
        "coordinates": [
          -6.363524296188359,
          -38.14158934910272
        ]
      }
    },
    {
      "type": "Feature",
      "properties": {
        "norad_id": 30063,
        "name": "FENGYUN 1C DEB",
        "group": "fengyun-1c-debris",
        "lat": 41.99866349024445,
        "lon": -51.319915326008996,
        "alt_km": 847.9388341209569,
        "timestamp": "2025-12-03T04:52:29.910613+00:00",
        "meta_object_name": "FENGYUN 1C DEB",
        "meta_object_id": "1999-025PQ",
        "meta_epoch": "2025-12-02T20:29:33.349344",
        "meta_mean_motion": 14.15606448,
        "meta_eccentricity": 0.0032519,
        "meta_inclination": 98.5204,
        "meta_ra_of_asc_node": 316.1033,
        "meta_arg_of_pericenter": 162.1631,
        "meta_mean_anomaly": 261.9049,
        "meta_ephemeris_type": 0,
        "meta_classification_type": "U",
        "meta_norad_cat_id": 30063,
        "meta_element_set_no": 999,
        "meta_rev_at_epoch": 97525,
        "meta_bstar": 0.00011119,
        "meta_mean_motion_dot": 1.77e-06,
        "meta_mean_motion_ddot": 0,
        "tle_line1": "1 30063U 99025PQ  25336.85385821  .00000177  00000+0  11119-3 0  9996",
        "tle_line2": "2 30063  98.5204 316.1033 0032519 162.1631 261.9049 14.15606448975257"
      },
      "geometry": {
        "type": "Point",
        "coordinates": [
          -51.319915326008996,
          41.99866349024445
        ]
      }
    },
    {
      "type": "Feature",
      "properties": {
        "norad_id": 30064,
        "name": "FENGYUN 1C DEB",
        "group": "fengyun-1c-debris",
        "lat": -34.32712978889132,
        "lon": 162.56986863646412,
        "alt_km": 839.435186604006,
        "timestamp": "2025-12-03T04:52:29.910623+00:00",
        "meta_object_name": "FENGYUN 1C DEB",
        "meta_object_id": "1999-025PR",
        "meta_epoch": "2025-12-02T13:10:23.049696",
        "meta_mean_motion": 14.14258701,
        "meta_eccentricity": 0.00663192,
        "meta_inclination": 98.6621,
        "meta_ra_of_asc_node": 347.9105,
        "meta_arg_of_pericenter": 140.1377,
        "meta_mean_anomaly": 344.6881,
        "meta_ephemeris_type": 0,
        "meta_classification_type": "U",
        "meta_norad_cat_id": 30064,
        "meta_element_set_no": 999,
        "meta_rev_at_epoch": 97361,
        "meta_bstar": 0.00021770682,
        "meta_mean_motion_dot": 3.82e-06,
        "meta_mean_motion_ddot": 0,
        "tle_line1": "1 30064U 99025PR  25336.54887789  .00000382  00000+0  21771-3 0  9996",
        "tle_line2": "2 30064  98.6621 347.9105 0066319 140.1377 344.6881 14.14258701973617"
      },
      "geometry": {
        "type": "Point",
        "coordinates": [
          162.56986863646412,
          -34.32712978889132
        ]
      }
    },
    {
      "type": "Feature",
      "properties": {
        "norad_id": 30065,
        "name": "FENGYUN 1C DEB",
        "group": "fengyun-1c-debris",
        "lat": 26.532931803243343,
        "lon": -53.66650361212517,
        "alt_km": 854.8922264530001,
        "timestamp": "2025-12-03T04:52:29.910634+00:00",
        "meta_object_name": "FENGYUN 1C DEB",
        "meta_object_id": "1999-025PS",
        "meta_epoch": "2025-12-02T20:05:28.603104",
        "meta_mean_motion": 13.86908844,
        "meta_eccentricity": 0.0131958,
        "meta_inclination": 98.683,
        "meta_ra_of_asc_node": 310.3694,
        "meta_arg_of_pericenter": 58.4893,
        "meta_mean_anomaly": 302.9079,
        "meta_ephemeris_type": 0,
        "meta_classification_type": "U",
        "meta_norad_cat_id": 30065,
        "meta_element_set_no": 999,
        "meta_rev_at_epoch": 95534,
        "meta_bstar": 0.00021459,
        "meta_mean_motion_dot": 2.3e-06,
        "meta_mean_motion_ddot": 0,
        "tle_line1": "1 30065U 99025PS  25336.83713661  .00000230  00000+0  21459-3 0  9991",
        "tle_line2": "2 30065  98.6830 310.3694 0131958  58.4893 302.9079 13.86908844955347"
      },
      "geometry": {
        "type": "Point",
        "coordinates": [
          -53.66650361212517,
          26.532931803243343
        ]
      }
    }
  ]
}